[{"OBJECT_NAME":"SL-8 R/B","OBJECT_ID":"1988-053B","EPOCH":"2026-03-12T14:05:04.818048","MEAN_MOTION":14.3891777,"ECCENTRICITY":0.0021473,"INCLINATION":74.0456,"RA_OF_ASC_NODE":107.1257,"ARG_OF_PERICENTER":286.0145,"MEAN_ANOMALY":188.5505,"EPHEMERIS_TYPE":0,"CLASSIFICATION_TYPE":"U","NORAD_CAT_ID":19257,"ELEMENT_SET_NO":999,"REV_AT_EPOCH":97701,"BSTAR":0.00010685,"MEAN_MOTION_DOT":3.04e-6,"MEAN_MOTION_DDOT":0},{"OBJECT_NAME":"COSMOS 1975","OBJECT_ID":"1988-093A","EPOCH":"2026-03-12T14:32:44.907648","MEAN_MOTION":15.28114295,"ECCENTRICITY":0.00124135,"INCLINATION":82.5183,"RA_OF_ASC_NODE":114.7575,"ARG_OF_PERICENTER":153.5264,"MEAN_ANOMALY":206.6612,"EPHEMERIS_TYPE":0,"CLASSIFICATION_TYPE":"U","NORAD_CAT_ID":19573,"ELEMENT_SET_NO":999,"REV_AT_EPOCH":1985,"BSTAR":0.00026023928,"MEAN_MOTION_DOT":7.18e-5,"MEAN_MOTION_DDOT":0},{"OBJECT_NAME":"SL-14 R/B","OBJECT_ID":"1988-093B","EPOCH":"2026-03-12T10:26:27.204576","MEAN_MOTION":14.8566063,"ECCENTRICITY":0.0021577,"INCLINATION":82.5309,"RA_OF_ASC_NODE":39.4663,"ARG_OF_PERICENTER":32.8451,"MEAN_ANOMALY":88.9894,"EPHEMERIS_TYPE":0,"CLASSIFICATION_TYPE":"U","NORAD_CAT_ID":19574,"ELEMENT_SET_NO":999,"REV_AT_EPOCH":142,"BSTAR":8.334e-5,"MEAN_MOTION_DOT":7.49e-6,"MEAN_MOTION_DDOT":0},{"OBJECT_NAME":"SL-16 R/B","OBJECT_ID":"1988-102B","EPOCH":"2026-03-12T15:49:57.195264","MEAN_MOTION":14.16154077,"ECCENTRICITY":0.00141578,"INCLINATION":70.9998,"RA_OF_ASC_NODE":145.2486,"ARG_OF_PERICENTER":357.0023,"MEAN_ANOMALY":3.1013,"EPHEMERIS_TYPE":0,"CLASSIFICATION_TYPE":"U","NORAD_CAT_ID":19650,"ELEMENT_SET_NO":999,"REV_AT_EPOCH":92731,"BSTAR":0.00016250687,"MEAN_MOTION_DOT":2.74e-6,"MEAN_MOTION_DDOT":0},{"OBJECT_NAME":"INTERCOSMOS 24","OBJECT_ID":"1989-080A","EPOCH":"2026-03-12T13:58:54.721920","MEAN_MOTION":12.59562801,"ECCENTRICITY":0.11866819,"INCLINATION":82.6021,"RA_OF_ASC_NODE":102.5201,"ARG_OF_PERICENTER":286.0994,"MEAN_ANOMALY":61.2826,"EPHEMERIS_TYPE":0,"CLASSIFICATION_TYPE":"U","NORAD_CAT_ID":20261,"ELEMENT_SET_NO":999,"REV_AT_EPOCH":66716,"BSTAR":0.00024814386,"MEAN_MOTION_DOT":8.33e-6,"MEAN_MOTION_DDOT":0},{"OBJECT_NAME":"SL-14 R/B","OBJECT_ID":"1989-080C","EPOCH":"2026-03-12T18:09:32.412960","MEAN_MOTION":12.50497915,"ECCENTRICITY":0.12306598,"INCLINATION":82.5974,"RA_OF_ASC_NODE":171.2182,"ARG_OF_PERICENTER":177.7419,"MEAN_ANOMALY":183.0018,"EPHEMERIS_TYPE":0,"CLASSIFICATION_TYPE":"U","NORAD_CAT_ID":20262,"ELEMENT_SET_NO":999,"REV_AT_EPOCH":66053,"BSTAR":0.00018538004,"MEAN_MOTION_DOT":6.33e-6,"MEAN_MOTION_DDOT":0},{"OBJECT_NAME":"DELTA 1 R/B","OBJECT_ID":"1989-089B","EPOCH":"2026-03-12T14:04:59.729088","MEAN_MOTION":14.50665673,"ECCENTRICITY":0.0070581,"INCLINATION":97.0704,"RA_OF_ASC_NODE":278.5648,"ARG_OF_PERICENTER":112.9989,"MEAN_ANOMALY":247.8674,"EPHEMERIS_TYPE":0,"CLASSIFICATION_TYPE":"U","NORAD_CAT_ID":20323,"ELEMENT_SET_NO":999,"REV_AT_EPOCH":89615,"BSTAR":0.0001102,"MEAN_MOTION_DOT":4.12e-6,"MEAN_MOTION_DDOT":0},{"OBJECT_NAME":"ARIANE 40 R/B","OBJECT_ID":"1990-005H","EPOCH":"2026-03-12T17:34:18.218784","MEAN_MOTION":14.39872747,"ECCENTRICITY":0.00100335,"INCLINATION":98.3078,"RA_OF_ASC_NODE":132.3029,"ARG_OF_PERICENTER":189.19,"MEAN_ANOMALY":170.9107,"EPHEMERIS_TYPE":0,"CLASSIFICATION_TYPE":"U","NORAD_CAT_ID":20443,"ELEMENT_SET_NO":999,"REV_AT_EPOCH":89324,"BSTAR":0.0001117492,"MEAN_MOTION_DOT":3.09e-6,"MEAN_MOTION_DDOT":0},{"OBJECT_NAME":"DELTA 2 R/B(1)","OBJECT_ID":"1990-008B","EPOCH":"2026-03-12T13:58:30.046944","MEAN_MOTION":15.56385855,"ECCENTRICITY":0.0084468,"INCLINATION":35.6032,"RA_OF_ASC_NODE":155.8638,"ARG_OF_PERICENTER":285.3867,"MEAN_ANOMALY":73.755,"EPHEMERIS_TYPE":0,"CLASSIFICATION_TYPE":"U","NORAD_CAT_ID":20453,"ELEMENT_SET_NO":999,"REV_AT_EPOCH":92658,"BSTAR":0.00079308,"MEAN_MOTION_DOT":0.00068711,"MEAN_MOTION_DDOT":0},{"OBJECT_NAME":"COSMOS 2058","OBJECT_ID":"1990-010A","EPOCH":"2026-03-12T10:17:36.698208","MEAN_MOTION":15.11349429,"ECCENTRICITY":0.0008931,"INCLINATION":82.4668,"RA_OF_ASC_NODE":44.7287,"ARG_OF_PERICENTER":335.5228,"MEAN_ANOMALY":24.5576,"EPHEMERIS_TYPE":0,"CLASSIFICATION_TYPE":"U","NORAD_CAT_ID":20465,"ELEMENT_SET_NO":999,"REV_AT_EPOCH":94265,"BSTAR":0.00028118,"MEAN_MOTION_DOT":4.772e-5,"MEAN_MOTION_DDOT":0},{"OBJECT_NAME":"SL-14 R/B","OBJECT_ID":"1990-010B","EPOCH":"2026-03-12T23:48:09.512064","MEAN_MOTION":14.83572192,"ECCENTRICITY":0.0018398,"INCLINATION":82.4986,"RA_OF_ASC_NODE":264.2859,"ARG_OF_PERICENTER":290.5851,"MEAN_ANOMALY":69.339,"EPHEMERIS_TYPE":0,"CLASSIFICATION_TYPE":"U","NORAD_CAT_ID":20466,"ELEMENT_SET_NO":999,"REV_AT_EPOCH":92897,"BSTAR":6.0852e-5,"MEAN_MOTION_DOT":5.26e-6,"MEAN_MOTION_DDOT":0},{"OBJECT_NAME":"SL-14 R/B","OBJECT_ID":"1990-018B","EPOCH":"2026-03-12T22:41:12.526368","MEAN_MOTION":14.82149082,"ECCENTRICITY":0.0017632,"INCLINATION":82.5208,"RA_OF_ASC_NODE":220.0464,"ARG_OF_PERICENTER":82.204,"MEAN_ANOMALY":278.1175,"EPHEMERIS_TYPE":0,"CLASSIFICATION_TYPE":"U","NORAD_CAT_ID":20511,"ELEMENT_SET_NO":999,"REV_AT_EPOCH":92306,"BSTAR":7.6946e-5,"MEAN_MOTION_DOT":6.38e-6,"MEAN_MOTION_DDOT":0},{"OBJECT_NAME":"HST","OBJECT_ID":"1990-037B","EPOCH":"2026-03-12T22:39:39.162528","MEAN_MOTION":15.29540863,"ECCENTRICITY":0.0001801,"INCLINATION":28.4723,"RA_OF_ASC_NODE":17.7975,"ARG_OF_PERICENTER":157.8636,"MEAN_ANOMALY":202.2037,"EPHEMERIS_TYPE":0,"CLASSIFICATION_TYPE":"U","NORAD_CAT_ID":20580,"ELEMENT_SET_NO":999,"REV_AT_EPOCH":77381,"BSTAR":0.00028877196,"MEAN_MOTION_DOT":8.743e-5,"MEAN_MOTION_DDOT":0},{"OBJECT_NAME":"SL-16 R/B","OBJECT_ID":"1990-046B","EPOCH":"2026-03-12T17:41:11.581440","MEAN_MOTION":14.15011499,"ECCENTRICITY":0.00161982,"INCLINATION":70.9981,"RA_OF_ASC_NODE":291.5148,"ARG_OF_PERICENTER":295.5364,"MEAN_ANOMALY":64.4084,"EPHEMERIS_TYPE":0,"CLASSIFICATION_TYPE":"U","NORAD_CAT_ID":20625,"ELEMENT_SET_NO":999,"REV_AT_EPOCH":84882,"BSTAR":-5.2624876e-5,"MEAN_MOTION_DOT":-1.5e-6,"MEAN_MOTION_DDOT":0},{"OBJECT_NAME":"COSMOS 2084","OBJECT_ID":"1990-055A","EPOCH":"2026-03-12T18:38:53.148192","MEAN_MOTION":15.05671456,"ECCENTRICITY":0.0016612,"INCLINATION":62.7917,"RA_OF_ASC_NODE":325.0488,"ARG_OF_PERICENTER":190.8037,"MEAN_ANOMALY":169.2709,"EPHEMERIS_TYPE":0,"CLASSIFICATION_TYPE":"U","NORAD_CAT_ID":20663,"ELEMENT_SET_NO":999,"REV_AT_EPOCH":93678,"BSTAR":0.00020542135,"MEAN_MOTION_DOT":2.788e-5,"MEAN_MOTION_DDOT":0},{"OBJECT_NAME":"SL-6 R/B(2)","OBJECT_ID":"1990-055D","EPOCH":"2026-03-12T19:55:44.399136","MEAN_MOTION":15.03612237,"ECCENTRICITY":0.00253072,"INCLINATION":62.7824,"RA_OF_ASC_NODE":243.1697,"ARG_OF_PERICENTER":347.7973,"MEAN_ANOMALY":12.251,"EPHEMERIS_TYPE":0,"CLASSIFICATION_TYPE":"U","NORAD_CAT_ID":20666,"ELEMENT_SET_NO":999,"REV_AT_EPOCH":93866,"BSTAR":0.00020088548,"MEAN_MOTION_DOT":2.577e-5,"MEAN_MOTION_DDOT":0},{"OBJECT_NAME":"SL-8 R/B","OBJECT_ID":"1990-078B","EPOCH":"2026-03-12T22:26:48.031296","MEAN_MOTION":14.89178843,"ECCENTRICITY":0.03615637,"INCLINATION":82.9001,"RA_OF_ASC_NODE":248.3911,"ARG_OF_PERICENTER":3.0852,"MEAN_ANOMALY":357.2472,"EPHEMERIS_TYPE":0,"CLASSIFICATION_TYPE":"U","NORAD_CAT_ID":20775,"ELEMENT_SET_NO":999,"REV_AT_EPOCH":80978,"BSTAR":0.0004956881,"MEAN_MOTION_DOT":0.00016825,"MEAN_MOTION_DDOT":0}]
